GSAT-10                 
1 38779U 12051B   26182.88036455 -.00000154  00000+0  00000+0 0  9990
2 38779   0.0515 248.9399 0008139 203.7832 227.1531  1.00270790 50245
INTELSAT 23 (IS-23)     
1 38867U 12057A   26182.95209060 -.00000274  00000+0  00000+0 0  9999
2 38867   0.0116 354.0079 0000295 212.3998   3.3353  1.00267565 50105
BEIDOU-2 G6             
1 38953U 12059A   26182.91622450 -.00000167  00000+0  00000+0 0  9996
2 38953   4.4573  73.3702 0009511 329.5977 290.8571  1.00270616 50058
LUCH-5B                 
1 38977U 12061A   26182.94659941 -.00000132  00000+0  00000+0 0  9995
2 38977  10.5143  49.7338 0002919 135.3494  59.4447  1.00272720 49753
YAMAL 300K              
1 38978U 12061B   26182.18586419  .00000000  00000+0  00000+0 0  9994
2 38978   0.0155   2.2459 0003378 296.2491 230.6411  1.00304594 49774
STAR ONE C3             
1 38991U 12062A   26182.95597142 -.00000239  00000+0  00000+0 0  9995
2 38991   0.0141 306.8121 0002632 167.4822  74.8645  1.00270921 49911
EUTELSAT 21B            
1 38992U 12062B   26182.87393885  .00000141  00000+0  00000+0 0  9996
2 38992   0.0666 345.3012 0002864 107.6559 163.1962  1.00274792 49971
ECHOSTAR 16             
1 39008U 12065A   26182.71496100 -.00000271  00000+0  00000+0 0  9990
2 39008   0.0045 115.4567 0001943 350.1326  10.0620  1.00271074 49797
ZHONGXING-12            
1 39017U 12067A   26182.95829178 -.00000197  00000+0  00000+0 0  9990
2 39017   0.0384  91.0482 0003214 358.8313 262.6219  1.00272551 49657
EUTELSAT 70B            
1 39020U 12069A   26182.95441804 -.00000033  00000+0  00000+0 0  9991
2 39020   0.0609   5.1029 0003462  94.6068 234.3707  1.00271029 49658
YAMAL 402               
1 39022U 12070A   26183.00291965  .00000095  00000+0  00000+0 0  9990
2 39022   1.3009  83.9888 0004043  14.1178 237.8864  1.00272636 49545
SKYNET 5D               
1 39034U 12075A   26182.88017664  .00000110  00000+0  00000+0 0  9993
2 39034   0.0659 355.6889 0003891 111.7498 182.1155  1.00270673 49302
MEXSAT 3                
1 39035U 12075B   26182.90480845 -.00000016  00000+0  00000+0 0  9998
2 39035   0.0213 288.8539 0001159 150.4377  51.5954  1.00276349  7204
TDRS 11                 
1 39070U 13004A   26182.90630938  .00000089  00000+0  00000+0 0  9999
2 39070   3.5423  31.4974 0004926  25.4786  14.8433  1.00274690 46843
AMAZONAS 3              
1 39078U 13006A   26182.96342215 -.00000272  00000+0  00000+0 0  9998
2 39078   0.0355 199.6148 0003253 304.7126  61.5226  1.00271941 45068
AZERSPACE 1             
1 39079U 13006B   26182.87878997  .00000144  00000+0  00000+0 0  9997
2 39079   0.0179  15.9553 0001848 112.0558 154.2645  1.00271215 48950
SBIRS GEO-2 (USA 241)   
1 39120U 13011A   26182.97399683 -.00000278  00000+0  00000+0 0  9990
2 39120   4.5208  52.5125 0001944  41.5086 126.8294  1.00271354 48689
EUTELSAT 117 WEST A     
1 39122U 13012A   26182.91782275 -.00000002  00000+0  00000+0 0  9995
2 39122   0.0187 326.9263 0003011 134.2607  32.3822  1.00271474 48585
ANIK G1                 
1 39127U 13014A   26182.91972942  .00000000  00000+0  00000+0 0  9991
2 39127   0.0203  18.7587 0001926  87.5997  37.4094  1.00269926 48406
ZHONGXING-11            
1 39157U 13020A   26181.73080771 -.00000280  00000+0  00000+0 0  9991
2 39157   0.0127 359.4962 0002627  81.5149 198.7846  1.00270396 48036
EUTELSAT 7B             
1 39163U 13022A   26182.87197624  .00000058  00000+0  00000+0 0  9994
2 39163   0.0660 344.5181 0004382  62.2966 194.0231  1.00270383 48095
WGS F5 (USA 243)        
1 39168U 13024A   26182.85927036  .00000000  00000+0  00000+0 0  9994
2 39168   0.0228  25.0862 0000432  96.6941  54.9697  1.00268159 47326
SES-6                   
1 39172U 13026A   26182.86169703 -.00000251  00000+0  00000+0 0  9990
2 39172   0.0228 329.9166 0002811 122.3750  97.3250  1.00272964 47877
IRNSS-1A                
1 39199U 13034A   26182.73810925  .00000064  00000+0  00000+0 0  9994
2 39199  35.7520  63.6617 0017942 181.1700 355.7331  1.00279201 47511
MUOS-2                  
1 39206U 13036A   26182.90370936 -.00000005  00000+0  00000+0 0  9993
2 39206   5.0240  45.5482 0051872 176.6656 195.0459  1.00270135 47341
ALPHASAT                
1 39215U 13038A   26182.86330617  .00000143  00000+0  00000+0 0  9994
2 39215   2.9980   1.2009 0002219 112.1597 142.2314  1.00270358 44160
INSAT-3D                
1 39216U 13038B   26182.89538933 -.00000330  00000+0  00000+0 0  9998
2 39216   1.9621  82.3689 0001098  12.4726 276.9412  1.00269269 47229
WGS F6 (USA 244)        
1 39222U 13041A   26182.91410941  .00000099  00000+0  00000+0 0  9991
2 39222   0.0188  23.5411 0001686 196.8044 253.5174  1.00274351 46219
ES'HAIL 1               
1 39233U 13044A   26182.87471885  .00000154  00000+0  00000+0 0  9997
2 39233   0.0483 345.3748 0002593 111.6060 163.3411  1.00270259 46774
GSAT-7                  
1 39234U 13044B   26182.95094596 -.00000066  00000+0  00000+0 0  9990
2 39234   0.1179  90.9206 0002631 183.2075  62.1628  1.00271898 45409
AMOS-4                  
1 39237U 13045A   26182.95441804  .00000018  00000+0  00000+0 0  9998
2 39237   0.0136  59.1187 0002220  14.6311 254.8350  1.00271717 47104
AEHF-3 (USA 246)        
1 39256U 13050A   26182.70265427  .00000036  00000+0  00000+0 0  9993
2 39256   5.3288  67.0524 0088282 187.6560 153.8322  1.00268373 45797
