OBJECT_NAME,OBJECT_ID,EPOCH,MEAN_MOTION,ECCENTRICITY,INCLINATION,RA_OF_ASC_NODE,ARG_OF_PERICENTER,MEAN_ANOMALY,EPHEMERIS_TYPE,CLASSIFICATION_TYPE,NORAD_CAT_ID,ELEMENT_SET_NO,REV_AT_EPOCH,BSTAR,MEAN_MOTION_DOT,MEAN_MOTION_DDOT
GSAT-10,2012-051B,2026-07-01T21:07:43.497120,1.00270790,.00081396,0.0515,248.9399,203.7832,227.1531,0,U,38779,999,5024,0,-.154E-5,0
INTELSAT 23 (IS-23),2012-057A,2026-07-01T22:51:00.627840,1.00267565,.00002953,0.0116,354.0079,212.3998,3.3353,0,U,38867,999,5010,0,-.274E-5,0
BEIDOU-2 G6,2012-059A,2026-07-01T21:59:21.796800,1.00270616,.00095111,4.4573,73.3702,329.5977,290.8571,0,U,38953,999,5005,0,-.167E-5,0
LUCH-5B,2012-061A,2026-07-01T22:43:06.189024,1.00272720,.00029199,10.5143,49.7338,135.3494,59.4447,0,U,38977,999,4975,0,-.132E-5,0
YAMAL 300K,2012-061B,2026-07-01T04:27:38.666016,1.00304594,.0003378,0.0155,2.2459,296.2491,230.6411,0,U,38978,999,4977,0,0,0
STAR ONE C3,2012-062A,2026-07-01T22:56:35.930688,1.00270921,.00026325,0.0141,306.8121,167.4822,74.8645,0,U,38991,999,4991,0,-.239E-5,0
EUTELSAT 21B,2012-062B,2026-07-01T20:58:28.316640,1.00274792,.00028648,0.0666,345.3012,107.6559,163.1962,0,U,38992,999,4997,0,.141E-5,0
ECHOSTAR 16,2012-065A,2026-07-01T17:09:32.630400,1.00271074,.0001943,0.0045,115.4567,350.1326,10.0620,0,U,39008,999,4979,0,-.271E-5,0
ZHONGXING-12,2012-067A,2026-07-01T22:59:56.409792,1.00272551,.00032148,0.0384,91.0482,358.8313,262.6219,0,U,39017,999,4965,0,-.197E-5,0
EUTELSAT 70B,2012-069A,2026-07-01T22:54:21.718656,1.00271029,.00034625,0.0609,5.1029,94.6068,234.3707,0,U,39020,999,4965,0,-.33E-6,0
YAMAL 402,2012-070A,2026-07-02T00:04:12.257760,1.00272636,.00040433,1.3009,83.9888,14.1178,237.8864,0,U,39022,999,4954,0,.95E-6,0
SKYNET 5D,2012-075A,2026-07-01T21:07:27.261696,1.00270673,.00038918,0.0659,355.6889,111.7498,182.1155,0,U,39034,999,4930,0,.11E-5,0
MEXSAT 3,2012-075B,2026-07-01T21:42:55.450080,1.00276349,.00011591,0.0213,288.8539,150.4377,51.5954,0,U,39035,999,720,0,-.16E-6,0
TDRS 11,2013-004A,2026-07-01T21:45:05.130432,1.00274690,.00049267,3.5423,31.4974,25.4786,14.8433,0,U,39070,999,4684,0,.89E-6,0
AMAZONAS 3,2013-006A,2026-07-01T23:07:19.673760,1.00271941,.00032537,0.0355,199.6148,304.7126,61.5226,0,U,39078,999,4506,0,-.272E-5,0
AZERSPACE 1,2013-006B,2026-07-01T21:05:27.453408,1.00271215,.00018487,0.0179,15.9553,112.0558,154.2645,0,U,39079,999,4895,0,.144E-5,0
SBIRS GEO-2 (USA 241),2013-011A,2026-07-01T23:22:33.326112,1.00271354,.00019448,4.5208,52.5125,41.5086,126.8294,0,U,39120,999,4868,0,-.278E-5,0
EUTELSAT 117 WEST A,2013-012A,2026-07-01T22:01:39.885600,1.00271474,.0003011,0.0187,326.9263,134.2607,32.3822,0,U,39122,999,4858,0,-.2E-7,0
ANIK G1,2013-014A,2026-07-01T22:04:24.621888,1.00269926,.0001926,0.0203,18.7587,87.5997,37.4094,0,U,39127,999,4840,0,0,0
ZHONGXING-11,2013-020A,2026-06-30T17:32:21.786144,1.00270396,.00026278,0.0127,359.4962,81.5149,198.7846,0,U,39157,999,4803,0,-.28E-5,0
EUTELSAT 7B,2013-022A,2026-07-01T20:55:38.747136,1.00270383,.00043822,0.0660,344.5181,62.2966,194.0231,0,U,39163,999,4809,0,.58E-6,0
WGS F5 (USA 243),2013-024A,2026-07-01T20:37:20.959104,1.00268159,.00004323,0.0228,25.0862,96.6941,54.9697,0,U,39168,999,4732,0,0,0
SES-6,2013-026A,2026-07-01T20:40:50.623392,1.00272964,.0002811,0.0228,329.9166,122.3750,97.3250,0,U,39172,999,4787,0,-.251E-5,0
IRNSS-1A,2013-034A,2026-07-01T17:42:52.639200,1.00279201,.00179426,35.7520,63.6617,181.1700,355.7331,0,U,39199,999,4751,0,.64E-6,0
MUOS-2,2013-036A,2026-07-01T21:41:20.488704,1.00270135,.00518722,5.0240,45.5482,176.6656,195.0459,0,U,39206,999,4734,0,-.5E-7,0
ALPHASAT,2013-038A,2026-07-01T20:43:09.653088,1.00270358,.00022191,2.9980,1.2009,112.1597,142.2314,0,U,39215,999,4416,0,.143E-5,0
INSAT-3D,2013-038B,2026-07-01T21:29:21.638112,1.00269269,.00010984,1.9621,82.3689,12.4726,276.9412,0,U,39216,999,4722,0,-.33E-5,0
WGS F6 (USA 244),2013-041A,2026-07-01T21:56:19.053024,1.00274351,.00016862,0.0188,23.5411,196.8044,253.5174,0,U,39222,999,4621,0,.99E-6,0
ES'HAIL 1,2013-044A,2026-07-01T20:59:35.708640,1.00270259,.00025937,0.0483,345.3748,111.6060,163.3411,0,U,39233,999,4677,0,.154E-5,0
GSAT-7,2013-044B,2026-07-01T22:49:21.730944,1.00271898,.00026315,0.1179,90.9206,183.2075,62.1628,0,U,39234,999,4540,0,-.66E-6,0
AMOS-4,2013-045A,2026-07-01T22:54:21.718656,1.00271717,.00022204,0.0136,59.1187,14.6311,254.8350,0,U,39237,999,4710,0,.18E-6,0
AEHF-3 (USA 246),2013-050A,2026-07-01T16:51:49.328928,1.00268373,.00882825,5.3288,67.0524,187.6560,153.8322,0,U,39256,999,4579,0,.36E-6,0
